ELYSIUM STAR 2 & LFF    
1 43760U 18099C   24282.87378991  .00247159  00000+0  47007-2 0  9994
2 43760  97.4987 352.3518 0006069 227.0753 132.9987 15.47301217320667
